     2.10           N: GPS NAV DATA                         RINEX VERSION / TYPE
sbf2rin-12.1.2                          12-APR-21 20:12     PGM / RUN BY / DATE 
    1.1176E-08  1.4901E-08 -5.9605E-08 -5.9605E-08          ION ALPHA           
    8.8064E+04  1.6384E+04 -1.9661E+05 -1.3107E+05          ION BETA            
   -3.725290298462E-09-7.105427357601E-15   405504     2152 DELTA-UTC: A0,A1,T,W
    18                                                      LEAP SECONDS        
                                                            END OF HEADER       
27 21  4  6 18  0  0.0-1.079146750271E-04-6.934897101019E-12 0.000000000000E+00
    3.200000000000E+01 5.506250000000E+01 4.098742157634E-09 1.415500904700E+00
    3.088265657425E-06 9.345635655336E-03 9.372830390930E-06 5.153685794830E+03
    2.376000000000E+05-1.024454832077E-07 2.665795807816E+00 1.788139343262E-07
    9.764766758187E-01 2.091250000000E+02 6.008237906082E-01-7.926044437279E-09
   -1.728643433509E-10 1.000000000000E+00 2.152000000000E+03 0.000000000000E+00
    2.000000000000E+00 0.000000000000E+00 1.862645149231E-09 3.200000000000E+01
    2.327460000000E+05 4.000000000000E+00
28 21  4  6 18  0  0.0 5.908012390137E-04-5.911715561524E-12 0.000000000000E+00
    7.300000000000E+01 5.531250000000E+00 4.311251009481E-09 2.170222855087E+00
    2.160668373108E-07 1.774794375524E-02 7.798895239830E-06 5.153665683746E+03
    2.376000000000E+05 2.682209014893E-07 1.712611603936E+00-9.126961231232E-08
    9.730974330712E-01 2.313125000000E+02-1.345471016246E+00-7.610674157984E-09
   -5.525230148013E-10 1.000000000000E+00 2.152000000000E+03 0.000000000000E+00
    4.000000000000E+00 0.000000000000E+00-1.117587089539E-08 7.300000000000E+01
    2.327460000000E+05 4.000000000000E+00
29 21  4  6  2  0  0.0-3.249365836382E-04-6.707523425575E-12 0.000000000000E+00
    4.100000000000E+01 6.696875000000E+01 3.921234763739E-09-5.197776901414E-01
    3.248453140259E-06 1.690177829005E-03 7.465481758118E-06 5.153661920547E+03
    1.800000000000E+05-1.862645149231E-09 2.738961979046E+00 1.676380634308E-08
    9.845061255233E-01 2.491250000000E+02 2.108122807708E+00-7.816754170615E-09
    1.403629895391E-10 1.000000000000E+00 2.152000000000E+03 0.000000000000E+00
    2.000000000000E+00 0.000000000000E+00-1.024454832077E-08 4.100000000000E+01
    1.728180000000E+05 4.000000000000E+00
30 21  4  6 18  0  0.0-4.091453738511E-04-5.343281372916E-12 0.000000000000E+00
    5.600000000000E+01 3.287500000000E+01 5.365937798562E-09-1.467651731071E+00
    1.477077603340E-06 5.041996366344E-03 5.926936864853E-06 5.153716440201E+03
    2.376000000000E+05 5.774199962616E-08 5.978273013582E-01-6.519258022308E-08
    9.372826647166E-01 2.490000000000E+02-2.819846563117E+00-8.397849804153E-09
    3.025126008641E-10 1.000000000000E+00 2.152000000000E+03 0.000000000000E+00
    2.000000000000E+00 0.000000000000E+00 3.725290298462E-09 5.600000000000E+01
    2.327460000000E+05 4.000000000000E+00
31 21  4  6  2  0  0.0-1.099053770304E-04-2.273736754432E-12 0.000000000000E+00
    9.000000000000E+00 2.778125000000E+01 4.792699635177E-09 2.275104304689E+00
    1.383945345879E-06 9.951298939995E-03 6.813555955887E-06 5.153757223129E+03
    1.800000000000E+05-1.378357410431E-07 5.972246142195E-01 2.980232238770E-08
    9.563826153233E-01 2.496562500000E+02 2.572561133269E-01-8.062478691742E-09
   -5.607376426879E-11 1.000000000000E+00 2.152000000000E+03 0.000000000000E+00
    2.000000000000E+00 0.000000000000E+00-1.303851604462E-08 9.000000000000E+00
    1.728180000000E+05 4.000000000000E+00
11 21  4  6 17 59 44.0 2.220040187240E-05 1.057287590811E-11 0.000000000000E+00
    3.500000000000E+01 7.228125000000E+01 5.627020102259E-09-1.534936472768E+00
    3.883615136147E-06 1.531243941281E-02 5.574896931648E-06 5.154084260941E+03
    2.375840000000E+05-3.241002559662E-07-3.055595839386E+00 1.154839992523E-07
    9.146452377540E-01 2.485937500000E+02 2.091128846173E+00-8.826796242922E-09
    1.207193141583E-10 1.000000000000E+00 2.152000000000E+03 0.000000000000E+00
    2.000000000000E+00 6.300000000000E+01-1.257285475731E-08 3.500000000000E+01
    2.330280000000E+05 4.000000000000E+00
17 21  4  6 18  0  0.0 4.221010021865E-04 6.025402399246E-12 0.000000000000E+00
    6.500000000000E+01 6.853125000000E+01 3.905876981168E-09 1.401690340680E+00
    3.235414624214E-06 1.336565287784E-02 9.244307875633E-06 5.153579963684E+03
    2.376000000000E+05-7.264316082001E-08 2.726160256500E+00-3.464519977570E-07
    9.826689022984E-01 2.137187500000E+02-1.570152455587E+00-7.810325331400E-09
   -3.857303529318E-11 1.000000000000E+00 2.152000000000E+03 0.000000000000E+00
    2.000000000000E+00 0.000000000000E+00-1.117587089539E-08 6.500000000000E+01
    2.355660000000E+05 4.000000000000E+00
15 21  4  6 18  0  0.0-1.579914242029E-04 2.614797267597E-12 0.000000000000E+00
    3.400000000000E+01-4.237500000000E+01 5.078782980268E-09 4.973480648404E-01
   -2.093613147736E-06 1.307327370159E-02 1.027435064316E-05 5.153594018936E+03
    2.376000000000E+05-1.657754182816E-07-5.900938292394E-01 1.247972249985E-07
    9.290829459768E-01 1.677500000000E+02 9.746276263641E-01-8.379991917443E-09
    1.335769925893E-10 1.000000000000E+00 2.152000000000E+03 0.000000000000E+00
    2.000000000000E+00 0.000000000000E+00-1.071020960808E-08 3.400000000000E+01
    2.359320000000E+05 4.000000000000E+00
21 21  4  6 18  0  0.0 1.089898869395E-04 2.955857780762E-12 0.000000000000E+00
    3.300000000000E+01 2.375000000000E+01 4.682337895311E-09 1.610560520459E+00
    7.916241884232E-07 2.419611637015E-02 2.648681402206E-06 5.153700759888E+03
    2.376000000000E+05 5.364418029785E-07-2.643111206134E+00-1.695007085800E-07
    9.568063597854E-01 3.147812500000E+02-1.159337560457E+00-8.148910863418E-09
   -3.178703834345E-11 1.000000000000E+00 2.152000000000E+03 0.000000000000E+00
    2.000000000000E+00 0.000000000000E+00-1.024454832077E-08 3.300000000000E+01
    2.365080000000E+05 4.000000000000E+00
20 21  4  6 18  0  0.0 5.234479904175E-04-3.410605131648E-13 0.000000000000E+00
    5.200000000000E+01-8.362500000000E+01 5.028780897481E-09-1.141637991108E+00
   -4.330649971962E-06 6.034212070517E-03 4.490837454796E-06 5.151697380066E+03
    2.376000000000E+05-7.078051567078E-08-1.666755548750E+00-2.197921276093E-07
    9.372588879090E-01 2.838437500000E+02 3.019070067975E+00-8.427493896091E-09
   -9.178953768839E-11 1.000000000000E+00 2.152000000000E+03 0.000000000000E+00
    2.000000000000E+00 0.000000000000E+00-8.381903171539E-09 5.200000000000E+01
    2.365980000000E+05 4.000000000000E+00
14 21  4  6 20  0  0.0 9.770970791578E-05-2.046363078989E-12 0.000000000000E+00
    1.430000000000E+02 2.531250000000E+00 4.784127849557E-09-4.409321242157E-01
    7.823109626770E-08 5.341261858121E-04 7.409602403641E-06 5.153743515015E+03
    2.448000000000E+05 4.284083843231E-08 1.663846951618E+00 5.029141902924E-08
    9.574095033545E-01 2.346562500000E+02 2.434890547353E+00-8.126052768429E-09
   -3.342996392075E-10 1.000000000000E+00 2.152000000000E+03 0.000000000000E+00
    2.000000000000E+00 0.000000000000E+00-7.916241884232E-09 9.110000000000E+02
    2.376180000000E+05 4.000000000000E+00
30 21  4  6 20  0  0.0-4.091835580766E-04-5.343281372916E-12 0.000000000000E+00
    5.700000000000E+01 3.287500000000E+01 5.339150968497E-09-4.174919546043E-01
    1.810491085052E-06 5.042128264904E-03 5.926936864853E-06 5.153716577530E+03
    2.448000000000E+05 5.960464477539E-08 5.977669091740E-01 6.146728992462E-08
    9.372843002590E-01 2.507187500000E+02-2.819845733642E+00-8.500354073867E-09
    2.542963067476E-10 1.000000000000E+00 2.152000000000E+03 0.000000000000E+00
    2.000000000000E+00 0.000000000000E+00 3.725290298462E-09 5.700000000000E+01
    2.376180000000E+05 4.000000000000E+00
28 21  4  6 20  0  0.0 5.907583981752E-04-5.911715561524E-12 0.000000000000E+00
    1.080000000000E+02 6.281250000000E+00 4.332323315798E-09-3.062775096694E+00
    2.980232238770E-07 1.774840871803E-02 7.579103112221E-06 5.153664876938E+03
    2.448000000000E+05 3.073364496231E-07 1.712555669263E+00 2.142041921616E-07
    9.730939513261E-01 2.352500000000E+02-1.345473283769E+00-7.625317625086E-09
   -3.392998474863E-10 1.000000000000E+00 2.152000000000E+03 0.000000000000E+00
    4.000000000000E+00 0.000000000000E+00-1.117587089539E-08 1.080000000000E+02
    2.376180000000E+05 4.000000000000E+00
13 21  4  6 20  0  0.0 1.167729496956E-04 4.547473508865E-12 0.000000000000E+00
    7.200000000000E+01-1.153125000000E+01 4.138743823864E-09 1.883296678455E+00
   -5.494803190231E-07 4.906783346087E-03 1.088157296181E-05 5.153682184219E+03
    2.448000000000E+05-5.960464477539E-08-3.446721043595E-01-4.284083843231E-08
    9.684298598137E-01 1.724062500000E+02 9.955559597818E-01-7.767109245562E-09
    3.807301446530E-10 1.000000000000E+00 2.152000000000E+03 0.000000000000E+00
    2.000000000000E+00 0.000000000000E+00-1.117587089539E-08 7.200000000000E+01
    2.376180000000E+05 4.000000000000E+00
07 21  4  6 20  0  0.0 1.139687374234E-04 1.182343112305E-11 0.000000000000E+00
    1.900000000000E+01 3.456250000000E+01 5.087354765889E-09-2.929879035051E-01
    2.013519406319E-06 1.469201606233E-02 6.163492798805E-06 5.153583257675E+03
    2.448000000000E+05 1.490116119385E-08 5.798469863259E-01 2.086162567139E-07
    9.520717585474E-01 2.585312500000E+02-2.343545705491E+00-8.524997957526E-09
    2.650110387735E-10 1.000000000000E+00 2.152000000000E+03 0.000000000000E+00
    2.000000000000E+00 0.000000000000E+00-1.117587089539E-08 1.900000000000E+01
    2.376180000000E+05 4.000000000000E+00
